STARLINK-32394          
1 61853U 24202J   26017.44511881  .00002276  00000+0  92208-4 0  9992
2 61853  43.0015 167.1141 0001536 292.3380  67.7309 15.27585906 67497
STARLINK-32486          
1 61854U 24202K   26017.71050951 -.00000406  00000+0 -52522-5 0  9990
2 61854  43.0016 165.6649 0000862 290.6186  69.4573 15.27582550 67541
STARLINK-32391          
1 61855U 24202L   26017.71436396  .00000550  00000+0  29508-4 0  9997
2 61855  43.0006 165.6944 0001286 278.8517  81.2189 15.27585156 67535
STARLINK-32483          
1 61856U 24202M   26017.78362939 -.00004764  00000+0 -16378-3 0  9999
2 61856  43.0049 165.3592 0001703 278.0252  82.0406 15.27561941 67550
STARLINK-32451          
1 61857U 24202N   26017.72592665  .00003226  00000+0  12670-3 0  9996
2 61857  43.0028 165.7865 0001942 287.0129  73.0510 15.27587991 67541
STARLINK-32556          
1 61858U 24202P   26017.46053534  .00002010  00000+0  82539-4 0  9997
2 61858  43.0035 167.2343 0001177 277.5030  82.5688 15.27586532 67500
STARLINK-32466          
1 61859U 24202Q   26017.46696352  .00000505  00000+0  27864-4 0  9996
2 61859  43.0035 167.2833 0001364 275.9894  84.0802 15.27580362 67503
STARLINK-32316          
1 61860U 24202R   26017.45074185  .00000083  00000+0  12542-4 0  9999
2 61860  43.0023 163.6972 0001207 272.7347  87.3366 15.27579936 67539
STARLINK-32415          
1 61861U 24202S   26017.80159548  .00000800  00000+0  38604-4 0  9990
2 61861  43.0023 165.4894 0001582 256.1117 103.9559 15.27585380 67540
STARLINK-32393          
1 61862U 24202T   26017.79774994  .00000030  00000+0  10613-4 0  9992
2 61862  43.0035 165.4643 0001480 275.9992  84.0691 15.27591350 67554
STARLINK-32324          
1 61863U 24202U   26017.67853946  .00000352  00000+0  22309-4 0  9997
2 61863  43.0019 166.2857 0001673 272.1270  87.9390 15.27580433 67520
STARLINK-32318          
1 61864U 24202V   26017.68496907 -.00000532  00000+0 -98103-5 0  9997
2 61864  43.0008 166.3330 0001459 274.0714  85.9971 15.27575587 67530
STARLINK-32401          
1 61865U 24202W   26017.75422409 -.00002658  00000+0 -87142-4 0  9993
2 61865  43.0028 165.9932 0001622 266.1206  93.9460 15.27564524 67548
STARLINK-32588          
1 61866U 24202X   26017.81316586  .00000130  00000+0  14234-4 0  9992
2 61866  43.0003 165.5768 0000863 289.9869  70.0890 15.27583567 67551
STARLINK-32569          
1 61867U 24202Y   26017.82344414 -.00000156  00000+0  38474-5 0  9997
2 61867  42.9998 165.6516 0000912 276.1810  83.8938 15.27578643 67558
STARLINK-11402 [DTC]    
1 61874U 24204A   26017.90481343  .00000009  00000+0  49376-5 0  9998
2 61874  53.1587 246.9730 0001746 162.0372 198.0708 15.69708536 69522
