[{"OBJECT_NAME":"STARLINK-32394","OBJECT_ID":"2024-202J","EPOCH":"2026-01-17T10:40:58.265184","MEAN_MOTION":15.27585906,"ECCENTRICITY":0.00015369,"INCLINATION":43.0015,"RA_OF_ASC_NODE":167.1141,"ARG_OF_PERICENTER":292.338,"MEAN_ANOMALY":67.7309,"EPHEMERIS_TYPE":0,"CLASSIFICATION_TYPE":"U","NORAD_CAT_ID":61853,"ELEMENT_SET_NO":999,"REV_AT_EPOCH":6749,"BSTAR":9.2207829e-5,"MEAN_MOTION_DOT":2.276e-5,"MEAN_MOTION_DDOT":0},{"OBJECT_NAME":"STARLINK-32486","OBJECT_ID":"2024-202K","EPOCH":"2026-01-17T17:03:08.021664","MEAN_MOTION":15.2758255,"ECCENTRICITY":8.629e-5,"INCLINATION":43.0016,"RA_OF_ASC_NODE":165.6649,"ARG_OF_PERICENTER":290.6186,"MEAN_ANOMALY":69.4573,"EPHEMERIS_TYPE":0,"CLASSIFICATION_TYPE":"U","NORAD_CAT_ID":61854,"ELEMENT_SET_NO":999,"REV_AT_EPOCH":6754,"BSTAR":-5.252188e-6,"MEAN_MOTION_DOT":-4.06e-6,"MEAN_MOTION_DDOT":0},{"OBJECT_NAME":"STARLINK-32391","OBJECT_ID":"2024-202L","EPOCH":"2026-01-17T17:08:41.046144","MEAN_MOTION":15.27585156,"ECCENTRICITY":0.00012865,"INCLINATION":43.0006,"RA_OF_ASC_NODE":165.6944,"ARG_OF_PERICENTER":278.8517,"MEAN_ANOMALY":81.2189,"EPHEMERIS_TYPE":0,"CLASSIFICATION_TYPE":"U","NORAD_CAT_ID":61855,"ELEMENT_SET_NO":999,"REV_AT_EPOCH":6753,"BSTAR":2.9507661e-5,"MEAN_MOTION_DOT":5.5e-6,"MEAN_MOTION_DDOT":0},{"OBJECT_NAME":"STARLINK-32483","OBJECT_ID":"2024-202M","EPOCH":"2026-01-17T18:48:25.579296","MEAN_MOTION":15.27561941,"ECCENTRICITY":0.00017033,"INCLINATION":43.0049,"RA_OF_ASC_NODE":165.3592,"ARG_OF_PERICENTER":278.0252,"MEAN_ANOMALY":82.0406,"EPHEMERIS_TYPE":0,"CLASSIFICATION_TYPE":"U","NORAD_CAT_ID":61856,"ELEMENT_SET_NO":999,"REV_AT_EPOCH":6755,"BSTAR":-0.00016378484,"MEAN_MOTION_DOT":-4.764e-5,"MEAN_MOTION_DDOT":0},{"OBJECT_NAME":"STARLINK-32451","OBJECT_ID":"2024-202N","EPOCH":"2026-01-17T17:25:20.062560","MEAN_MOTION":15.27587991,"ECCENTRICITY":0.00019425,"INCLINATION":43.0028,"RA_OF_ASC_NODE":165.7865,"ARG_OF_PERICENTER":287.0129,"MEAN_ANOMALY":73.051,"EPHEMERIS_TYPE":0,"CLASSIFICATION_TYPE":"U","NORAD_CAT_ID":61857,"ELEMENT_SET_NO":999,"REV_AT_EPOCH":6754,"BSTAR":0.00012669523,"MEAN_MOTION_DOT":3.226e-5,"MEAN_MOTION_DDOT":0},{"OBJECT_NAME":"STARLINK-32556","OBJECT_ID":"2024-202P","EPOCH":"2026-01-17T11:03:10.253376","MEAN_MOTION":15.27586532,"ECCENTRICITY":0.00011776,"INCLINATION":43.0035,"RA_OF_ASC_NODE":167.2343,"ARG_OF_PERICENTER":277.503,"MEAN_ANOMALY":82.5688,"EPHEMERIS_TYPE":0,"CLASSIFICATION_TYPE":"U","NORAD_CAT_ID":61858,"ELEMENT_SET_NO":999,"REV_AT_EPOCH":6750,"BSTAR":8.2539093e-5,"MEAN_MOTION_DOT":2.01e-5,"MEAN_MOTION_DDOT":0},{"OBJECT_NAME":"STARLINK-32466","OBJECT_ID":"2024-202Q","EPOCH":"2026-01-17T11:12:25.648128","MEAN_MOTION":15.27580362,"ECCENTRICITY":0.00013643,"INCLINATION":43.0035,"RA_OF_ASC_NODE":167.2833,"ARG_OF_PERICENTER":275.9894,"MEAN_ANOMALY":84.0802,"EPHEMERIS_TYPE":0,"CLASSIFICATION_TYPE":"U","NORAD_CAT_ID":61859,"ELEMENT_SET_NO":999,"REV_AT_EPOCH":6750,"BSTAR":2.7863964e-5,"MEAN_MOTION_DOT":5.05e-6,"MEAN_MOTION_DDOT":0},{"OBJECT_NAME":"STARLINK-32316","OBJECT_ID":"2024-202R","EPOCH":"2026-01-17T10:49:04.095840","MEAN_MOTION":15.27579936,"ECCENTRICITY":0.00012078,"INCLINATION":43.0023,"RA_OF_ASC_NODE":163.6972,"ARG_OF_PERICENTER":272.7347,"MEAN_ANOMALY":87.3366,"EPHEMERIS_TYPE":0,"CLASSIFICATION_TYPE":"U","NORAD_CAT_ID":61860,"ELEMENT_SET_NO":999,"REV_AT_EPOCH":6753,"BSTAR":1.2542179e-5,"MEAN_MOTION_DOT":8.3e-7,"MEAN_MOTION_DDOT":0},{"OBJECT_NAME":"STARLINK-32415","OBJECT_ID":"2024-202S","EPOCH":"2026-01-17T19:14:17.849472","MEAN_MOTION":15.2758538,"ECCENTRICITY":0.00015824,"INCLINATION":43.0023,"RA_OF_ASC_NODE":165.4894,"ARG_OF_PERICENTER":256.1117,"MEAN_ANOMALY":103.9559,"EPHEMERIS_TYPE":0,"CLASSIFICATION_TYPE":"U","NORAD_CAT_ID":61861,"ELEMENT_SET_NO":999,"REV_AT_EPOCH":6754,"BSTAR":3.8603629e-5,"MEAN_MOTION_DOT":8.0e-6,"MEAN_MOTION_DDOT":0},{"OBJECT_NAME":"STARLINK-32393","OBJECT_ID":"2024-202T","EPOCH":"2026-01-17T19:08:45.594816","MEAN_MOTION":15.2759135,"ECCENTRICITY":0.00014804,"INCLINATION":43.0035,"RA_OF_ASC_NODE":165.4643,"ARG_OF_PERICENTER":275.9992,"MEAN_ANOMALY":84.0691,"EPHEMERIS_TYPE":0,"CLASSIFICATION_TYPE":"U","NORAD_CAT_ID":61862,"ELEMENT_SET_NO":999,"REV_AT_EPOCH":6755,"BSTAR":1.0613147e-5,"MEAN_MOTION_DOT":3.0e-7,"MEAN_MOTION_DDOT":0},{"OBJECT_NAME":"STARLINK-32324","OBJECT_ID":"2024-202U","EPOCH":"2026-01-17T16:17:05.809344","MEAN_MOTION":15.27580433,"ECCENTRICITY":0.00016739,"INCLINATION":43.0019,"RA_OF_ASC_NODE":166.2857,"ARG_OF_PERICENTER":272.127,"MEAN_ANOMALY":87.939,"EPHEMERIS_TYPE":0,"CLASSIFICATION_TYPE":"U","NORAD_CAT_ID":61863,"ELEMENT_SET_NO":999,"REV_AT_EPOCH":6752,"BSTAR":2.2309273e-5,"MEAN_MOTION_DOT":3.52e-6,"MEAN_MOTION_DDOT":0},{"OBJECT_NAME":"STARLINK-32318","OBJECT_ID":"2024-202V","EPOCH":"2026-01-17T16:26:21.327648","MEAN_MOTION":15.27575587,"ECCENTRICITY":0.00014596,"INCLINATION":43.0008,"RA_OF_ASC_NODE":166.333,"ARG_OF_PERICENTER":274.0714,"MEAN_ANOMALY":85.9971,"EPHEMERIS_TYPE":0,"CLASSIFICATION_TYPE":"U","NORAD_CAT_ID":61864,"ELEMENT_SET_NO":999,"REV_AT_EPOCH":6753,"BSTAR":-9.810308e-6,"MEAN_MOTION_DOT":-5.32e-6,"MEAN_MOTION_DDOT":0},{"OBJECT_NAME":"STARLINK-32401","OBJECT_ID":"2024-202W","EPOCH":"2026-01-17T18:06:04.961376","MEAN_MOTION":15.27564524,"ECCENTRICITY":0.00016227,"INCLINATION":43.0028,"RA_OF_ASC_NODE":165.9932,"ARG_OF_PERICENTER":266.1206,"MEAN_ANOMALY":93.946,"EPHEMERIS_TYPE":0,"CLASSIFICATION_TYPE":"U","NORAD_CAT_ID":61865,"ELEMENT_SET_NO":999,"REV_AT_EPOCH":6754,"BSTAR":-8.714183e-5,"MEAN_MOTION_DOT":-2.658e-5,"MEAN_MOTION_DDOT":0},{"OBJECT_NAME":"STARLINK-32588","OBJECT_ID":"2024-202X","EPOCH":"2026-01-17T19:30:57.530304","MEAN_MOTION":15.27583567,"ECCENTRICITY":8.637e-5,"INCLINATION":43.0003,"RA_OF_ASC_NODE":165.5768,"ARG_OF_PERICENTER":289.9869,"MEAN_ANOMALY":70.089,"EPHEMERIS_TYPE":0,"CLASSIFICATION_TYPE":"U","NORAD_CAT_ID":61866,"ELEMENT_SET_NO":999,"REV_AT_EPOCH":6755,"BSTAR":1.4233906e-5,"MEAN_MOTION_DOT":1.3e-6,"MEAN_MOTION_DDOT":0},{"OBJECT_NAME":"STARLINK-32569","OBJECT_ID":"2024-202Y","EPOCH":"2026-01-17T19:45:45.573696","MEAN_MOTION":15.27578643,"ECCENTRICITY":9.122e-5,"INCLINATION":42.9998,"RA_OF_ASC_NODE":165.6516,"ARG_OF_PERICENTER":276.181,"MEAN_ANOMALY":83.8938,"EPHEMERIS_TYPE":0,"CLASSIFICATION_TYPE":"U","NORAD_CAT_ID":61867,"ELEMENT_SET_NO":999,"REV_AT_EPOCH":6755,"BSTAR":3.84742e-6,"MEAN_MOTION_DOT":-1.56e-6,"MEAN_MOTION_DDOT":0},{"OBJECT_NAME":"STARLINK-11402 [DTC]","OBJECT_ID":"2024-204A","EPOCH":"2026-01-17T21:42:55.880352","MEAN_MOTION":15.69708536,"ECCENTRICITY":0.00017467,"INCLINATION":53.1587,"RA_OF_ASC_NODE":246.973,"ARG_OF_PERICENTER":162.0372,"MEAN_ANOMALY":198.0708,"EPHEMERIS_TYPE":0,"CLASSIFICATION_TYPE":"U","NORAD_CAT_ID":61874,"ELEMENT_SET_NO":999,"REV_AT_EPOCH":6952,"BSTAR":4.93757e-6,"MEAN_MOTION_DOT":9.0e-8,"MEAN_MOTION_DDOT":0}]
